SL-8 R/B                
1 21088U 91006B   26112.05441583  .00000144  00000+0  12932-3 0  9995
2 21088  82.9404 137.7976 0020913 273.9263 114.9965 13.77503202770048
OKEAN-3                 
1 21397U 91039A   26111.89749067  .00001842  00000+0  12751-3 0  9998
2 21397  82.5130 294.9636 0014180 176.6654 183.4670 15.05032921871532
COSMOS 2151             
1 21422U 91042A   26112.23808758  .00001156  00000+0  90109-4 0  9995
2 21422  82.4984  41.6612 0010604 273.6630  86.3381 15.00282472869728
SL-14 R/B               
1 21423U 91042B   26112.24374788  .00000246  00000+0  28008-4 0  9996
2 21423  82.4952 179.3545 0018595  97.7349 262.5977 14.81868027859527
ERS-1                   
1 21574U 91050A   26112.07166209  .00000206  00000+0  80546-4 0  9991
2 21574  98.7840 131.3905 0033066  74.3942 286.0891 14.39480718821972
ARIANE 40 R/B           
1 21610U 91050F   26112.15816881  .00000172  00000+0  63997-4 0  9992
2 21610  98.1929 162.7443 0001978 320.2784  39.8262 14.42922888825269
INTERCOSMOS 25          
1 21819U 91086A   26111.99119292  .00000666  00000+0  12636-3 0  9996
2 21819  82.5991 283.8189 1485767  23.6137 342.6491 12.12124359501933
SL-8 R/B                
1 21876U 92008B   26112.26998071  .00000037  00000+0  22651-4 0  9996
2 21876  82.9273 235.3574 0034831  15.2279 359.7605 13.75970225715415
SL-8 R/B                
1 21938U 92020B   26111.97251128 -.00000044  00000+0 -60981-4 0  9999
2 21938  82.9270 121.6157 0029140 174.1481 249.2888 13.75548871707080
USA 81                  
1 21949U 92023A   26111.90052025  .00000130  00000+0  40837-4 0  9994
2 21949  85.0035 106.4964 0001265  97.1798 262.9538 14.32381297100975
COSMOS 2219             
1 22219U 92076A   26111.88346859  .00000319  00000+0  19176-3 0  9991
2 22219  71.0589 287.7734 0017042 138.9251 221.3159 14.14092639724486
SL-16 R/B               
1 22220U 92076B   26111.97476091 -.00000212  00000+0 -81816-4 0  9990
2 22220  70.9981  97.1941 0011860  18.8110  45.7063 14.16866540727967
COSMOS 2221             
1 22236U 92080A   26112.30579115  .00001394  00000+0  12058-3 0  9992
2 22236  82.5041 237.2907 0015259  50.5435 309.7134 14.96376803787311
SL-16 R/B               
1 22285U 92093B   26112.13084129  .00000250  00000+0  15232-3 0  9994
2 22285  71.0202 273.0689 0006207 249.2620 110.7838 14.15455014719306
COSMOS 2228             
1 22286U 92094A   26112.22596744  .00001434  00000+0  12069-3 0  9997
2 22286  82.5206 195.6314 0018782 151.6870 208.5377 14.97397968782572
SL-16 R/B               
1 22566U 93016B   26112.03426938 -.00000288  00000+0 -12335-3 0  9993
2 22566  71.0040 124.1477 0012635 259.6039 100.3660 14.15310938708301
COSMOS 2242             
1 22626U 93024A   26112.29412133  .00001422  00000+0  12186-3 0  9992
2 22626  82.5203 225.0021 0016998 154.5057 205.7008 14.96731424786916
