[{"OBJECT_NAME":"SL-8 R/B","OBJECT_ID":"1991-006B","EPOCH":"2026-04-22T01:18:21.527712","MEAN_MOTION":13.77503202,"ECCENTRICITY":0.00209135,"INCLINATION":82.9404,"RA_OF_ASC_NODE":137.7976,"ARG_OF_PERICENTER":273.9263,"MEAN_ANOMALY":114.9965,"EPHEMERIS_TYPE":0,"CLASSIFICATION_TYPE":"U","NORAD_CAT_ID":21088,"ELEMENT_SET_NO":999,"REV_AT_EPOCH":77004,"BSTAR":0.00012932055,"MEAN_MOTION_DOT":1.44e-6,"MEAN_MOTION_DDOT":0},{"OBJECT_NAME":"OKEAN-3","OBJECT_ID":"1991-039A","EPOCH":"2026-04-21T21:32:23.193888","MEAN_MOTION":15.05032921,"ECCENTRICITY":0.001418,"INCLINATION":82.513,"RA_OF_ASC_NODE":294.9636,"ARG_OF_PERICENTER":176.6654,"MEAN_ANOMALY":183.467,"EPHEMERIS_TYPE":0,"CLASSIFICATION_TYPE":"U","NORAD_CAT_ID":21397,"ELEMENT_SET_NO":999,"REV_AT_EPOCH":87153,"BSTAR":0.00012751,"MEAN_MOTION_DOT":1.842e-5,"MEAN_MOTION_DDOT":0},{"OBJECT_NAME":"COSMOS 2151","OBJECT_ID":"1991-042A","EPOCH":"2026-04-22T05:42:50.766912","MEAN_MOTION":15.00282472,"ECCENTRICITY":0.00106041,"INCLINATION":82.4984,"RA_OF_ASC_NODE":41.6612,"ARG_OF_PERICENTER":273.663,"MEAN_ANOMALY":86.3381,"EPHEMERIS_TYPE":0,"CLASSIFICATION_TYPE":"U","NORAD_CAT_ID":21422,"ELEMENT_SET_NO":999,"REV_AT_EPOCH":86972,"BSTAR":9.0109004e-5,"MEAN_MOTION_DOT":1.156e-5,"MEAN_MOTION_DDOT":0},{"OBJECT_NAME":"SL-14 R/B","OBJECT_ID":"1991-042B","EPOCH":"2026-04-22T05:50:59.816832","MEAN_MOTION":14.81868027,"ECCENTRICITY":0.00185954,"INCLINATION":82.4952,"RA_OF_ASC_NODE":179.3545,"ARG_OF_PERICENTER":97.7349,"MEAN_ANOMALY":262.5977,"EPHEMERIS_TYPE":0,"CLASSIFICATION_TYPE":"U","NORAD_CAT_ID":21423,"ELEMENT_SET_NO":999,"REV_AT_EPOCH":85952,"BSTAR":2.8008406e-5,"MEAN_MOTION_DOT":2.46e-6,"MEAN_MOTION_DDOT":0},{"OBJECT_NAME":"ERS-1","OBJECT_ID":"1991-050A","EPOCH":"2026-04-22T01:43:11.604576","MEAN_MOTION":14.39480718,"ECCENTRICITY":0.00330663,"INCLINATION":98.784,"RA_OF_ASC_NODE":131.3905,"ARG_OF_PERICENTER":74.3942,"MEAN_ANOMALY":286.0891,"EPHEMERIS_TYPE":0,"CLASSIFICATION_TYPE":"U","NORAD_CAT_ID":21574,"ELEMENT_SET_NO":999,"REV_AT_EPOCH":82197,"BSTAR":8.0545946e-5,"MEAN_MOTION_DOT":2.06e-6,"MEAN_MOTION_DDOT":0},{"OBJECT_NAME":"ARIANE 40 R/B","OBJECT_ID":"1991-050F","EPOCH":"2026-04-22T03:47:45.785184","MEAN_MOTION":14.42922888,"ECCENTRICITY":0.00019781,"INCLINATION":98.1929,"RA_OF_ASC_NODE":162.7443,"ARG_OF_PERICENTER":320.2784,"MEAN_ANOMALY":39.8262,"EPHEMERIS_TYPE":0,"CLASSIFICATION_TYPE":"U","NORAD_CAT_ID":21610,"ELEMENT_SET_NO":999,"REV_AT_EPOCH":82526,"BSTAR":6.3996953e-5,"MEAN_MOTION_DOT":1.72e-6,"MEAN_MOTION_DDOT":0},{"OBJECT_NAME":"INTERCOSMOS 25","OBJECT_ID":"1991-086A","EPOCH":"2026-04-21T23:47:19.068288","MEAN_MOTION":12.12124359,"ECCENTRICITY":0.14857671,"INCLINATION":82.5991,"RA_OF_ASC_NODE":283.8189,"ARG_OF_PERICENTER":23.6137,"MEAN_ANOMALY":342.6491,"EPHEMERIS_TYPE":0,"CLASSIFICATION_TYPE":"U","NORAD_CAT_ID":21819,"ELEMENT_SET_NO":999,"REV_AT_EPOCH":50193,"BSTAR":0.00012636114,"MEAN_MOTION_DOT":6.66e-6,"MEAN_MOTION_DDOT":0},{"OBJECT_NAME":"SL-8 R/B","OBJECT_ID":"1992-008B","EPOCH":"2026-04-22T06:28:46.333344","MEAN_MOTION":13.75970225,"ECCENTRICITY":0.00348314,"INCLINATION":82.9273,"RA_OF_ASC_NODE":235.3574,"ARG_OF_PERICENTER":15.2279,"MEAN_ANOMALY":359.7605,"EPHEMERIS_TYPE":0,"CLASSIFICATION_TYPE":"U","NORAD_CAT_ID":21876,"ELEMENT_SET_NO":999,"REV_AT_EPOCH":71541,"BSTAR":2.2651415e-5,"MEAN_MOTION_DOT":3.7e-7,"MEAN_MOTION_DDOT":0},{"OBJECT_NAME":"SL-8 R/B","OBJECT_ID":"1992-020B","EPOCH":"2026-04-21T23:20:24.974592","MEAN_MOTION":13.75548871,"ECCENTRICITY":0.00291409,"INCLINATION":82.927,"RA_OF_ASC_NODE":121.6157,"ARG_OF_PERICENTER":174.1481,"MEAN_ANOMALY":249.2888,"EPHEMERIS_TYPE":0,"CLASSIFICATION_TYPE":"U","NORAD_CAT_ID":21938,"ELEMENT_SET_NO":999,"REV_AT_EPOCH":70708,"BSTAR":-6.0980622e-5,"MEAN_MOTION_DOT":-4.4e-7,"MEAN_MOTION_DDOT":0},{"OBJECT_NAME":"USA 81","OBJECT_ID":"1992-023A","EPOCH":"2026-04-21T21:36:44.949600","MEAN_MOTION":14.32381297,"ECCENTRICITY":0.0001265,"INCLINATION":85.0035,"RA_OF_ASC_NODE":106.4964,"ARG_OF_PERICENTER":97.1798,"MEAN_ANOMALY":262.9538,"EPHEMERIS_TYPE":0,"CLASSIFICATION_TYPE":"U","NORAD_CAT_ID":21949,"ELEMENT_SET_NO":999,"REV_AT_EPOCH":10097,"BSTAR":4.0837e-5,"MEAN_MOTION_DOT":1.3e-6,"MEAN_MOTION_DDOT":0},{"OBJECT_NAME":"COSMOS 2219","OBJECT_ID":"1992-076A","EPOCH":"2026-04-21T21:12:11.686176","MEAN_MOTION":14.14092639,"ECCENTRICITY":0.0017042,"INCLINATION":71.0589,"RA_OF_ASC_NODE":287.7734,"ARG_OF_PERICENTER":138.9251,"MEAN_ANOMALY":221.3159,"EPHEMERIS_TYPE":0,"CLASSIFICATION_TYPE":"U","NORAD_CAT_ID":22219,"ELEMENT_SET_NO":999,"REV_AT_EPOCH":72448,"BSTAR":0.00019176,"MEAN_MOTION_DOT":3.19e-6,"MEAN_MOTION_DDOT":0},{"OBJECT_NAME":"SL-16 R/B","OBJECT_ID":"1992-076B","EPOCH":"2026-04-21T23:23:39.342624","MEAN_MOTION":14.1686654,"ECCENTRICITY":0.00118601,"INCLINATION":70.9981,"RA_OF_ASC_NODE":97.1941,"ARG_OF_PERICENTER":18.811,"MEAN_ANOMALY":45.7063,"EPHEMERIS_TYPE":0,"CLASSIFICATION_TYPE":"U","NORAD_CAT_ID":22220,"ELEMENT_SET_NO":999,"REV_AT_EPOCH":72796,"BSTAR":-8.1815773e-5,"MEAN_MOTION_DOT":-2.12e-6,"MEAN_MOTION_DDOT":0},{"OBJECT_NAME":"COSMOS 2221","OBJECT_ID":"1992-080A","EPOCH":"2026-04-22T07:20:20.355360","MEAN_MOTION":14.96376803,"ECCENTRICITY":0.00152591,"INCLINATION":82.5041,"RA_OF_ASC_NODE":237.2907,"ARG_OF_PERICENTER":50.5435,"MEAN_ANOMALY":309.7134,"EPHEMERIS_TYPE":0,"CLASSIFICATION_TYPE":"U","NORAD_CAT_ID":22236,"ELEMENT_SET_NO":999,"REV_AT_EPOCH":78731,"BSTAR":0.00012057973,"MEAN_MOTION_DOT":1.394e-5,"MEAN_MOTION_DDOT":0},{"OBJECT_NAME":"SL-16 R/B","OBJECT_ID":"1992-093B","EPOCH":"2026-04-22T03:08:24.687456","MEAN_MOTION":14.15455014,"ECCENTRICITY":0.00062078,"INCLINATION":71.0202,"RA_OF_ASC_NODE":273.0689,"ARG_OF_PERICENTER":249.262,"MEAN_ANOMALY":110.7838,"EPHEMERIS_TYPE":0,"CLASSIFICATION_TYPE":"U","NORAD_CAT_ID":22285,"ELEMENT_SET_NO":999,"REV_AT_EPOCH":71930,"BSTAR":0.00015232456,"MEAN_MOTION_DOT":2.5e-6,"MEAN_MOTION_DDOT":0},{"OBJECT_NAME":"COSMOS 2228","OBJECT_ID":"1992-094A","EPOCH":"2026-04-22T05:25:23.586816","MEAN_MOTION":14.97397968,"ECCENTRICITY":0.00187824,"INCLINATION":82.5206,"RA_OF_ASC_NODE":195.6314,"ARG_OF_PERICENTER":151.687,"MEAN_ANOMALY":208.5377,"EPHEMERIS_TYPE":0,"CLASSIFICATION_TYPE":"U","NORAD_CAT_ID":22286,"ELEMENT_SET_NO":999,"REV_AT_EPOCH":78257,"BSTAR":0.00012068684,"MEAN_MOTION_DOT":1.434e-5,"MEAN_MOTION_DDOT":0},{"OBJECT_NAME":"SL-16 R/B","OBJECT_ID":"1993-016B","EPOCH":"2026-04-22T00:49:20.874432","MEAN_MOTION":14.15310938,"ECCENTRICITY":0.00126357,"INCLINATION":71.004,"RA_OF_ASC_NODE":124.1477,"ARG_OF_PERICENTER":259.6039,"MEAN_ANOMALY":100.366,"EPHEMERIS_TYPE":0,"CLASSIFICATION_TYPE":"U","NORAD_CAT_ID":22566,"ELEMENT_SET_NO":999,"REV_AT_EPOCH":70830,"BSTAR":-0.00012334607,"MEAN_MOTION_DOT":-2.88e-6,"MEAN_MOTION_DDOT":0},{"OBJECT_NAME":"COSMOS 2242","OBJECT_ID":"1993-024A","EPOCH":"2026-04-22T07:03:32.082912","MEAN_MOTION":14.96731424,"ECCENTRICITY":0.00169986,"INCLINATION":82.5203,"RA_OF_ASC_NODE":225.0021,"ARG_OF_PERICENTER":154.5057,"MEAN_ANOMALY":205.7008,"EPHEMERIS_TYPE":0,"CLASSIFICATION_TYPE":"U","NORAD_CAT_ID":22626,"ELEMENT_SET_NO":999,"REV_AT_EPOCH":78691,"BSTAR":0.00012185911,"MEAN_MOTION_DOT":1.422e-5,"MEAN_MOTION_DDOT":0}]
